<?xml version="1.0" encoding="UTF-8"?>
<ndm xmlns:xsi="http://www.w3.org/2001/XMLSchema-instance" xsi:noNamespaceSchemaLocation="https://sanaregistry.org/r/ndmxml_unqualified/ndmxml-2.0.0-master-2.0.xsd">
<omm id="CCSDS_OMM_VERS" version="2.0">
<header><CREATION_DATE/><ORIGINATOR/></header><body><segment><metadata><OBJECT_NAME>IRIDIUM 112</OBJECT_NAME><OBJECT_ID>2017-003J</OBJECT_ID><CENTER_NAME>EARTH</CENTER_NAME><REF_FRAME>TEME</REF_FRAME><TIME_SYSTEM>UTC</TIME_SYSTEM><MEAN_ELEMENT_THEORY>SGP4</MEAN_ELEMENT_THEORY></metadata><data><meanElements><EPOCH>2024-10-16T04:39:15.145056</EPOCH><MEAN_MOTION>14.34212308</MEAN_MOTION><ECCENTRICITY>.0001861</ECCENTRICITY><INCLINATION>86.3993</INCLINATION><RA_OF_ASC_NODE>342.8118</RA_OF_ASC_NODE><ARG_OF_PERICENTER>95.7337</ARG_OF_PERICENTER><MEAN_ANOMALY>264.4071</MEAN_ANOMALY></meanElements><tleParameters><EPHEMERIS_TYPE>0</EPHEMERIS_TYPE><CLASSIFICATION_TYPE>U</CLASSIFICATION_TYPE><NORAD_CAT_ID>41925</NORAD_CAT_ID><ELEMENT_SET_NO>999</ELEMENT_SET_NO><REV_AT_EPOCH>40601</REV_AT_EPOCH><BSTAR>.83012E-4</BSTAR><MEAN_MOTION_DOT>.252E-5</MEAN_MOTION_DOT><MEAN_MOTION_DDOT>0</MEAN_MOTION_DDOT></tleParameters></data></segment></body></omm>
<omm id="CCSDS_OMM_VERS" version="2.0">
<header><CREATION_DATE/><ORIGINATOR/></header><body><segment><metadata><OBJECT_NAME>IRIDIUM 111</OBJECT_NAME><OBJECT_ID>2017-003K</OBJECT_ID><CENTER_NAME>EARTH</CENTER_NAME><REF_FRAME>TEME</REF_FRAME><TIME_SYSTEM>UTC</TIME_SYSTEM><MEAN_ELEMENT_THEORY>SGP4</MEAN_ELEMENT_THEORY></metadata><data><meanElements><EPOCH>2024-10-16T06:01:26.909760</EPOCH><MEAN_MOTION>14.34211927</MEAN_MOTION><ECCENTRICITY>.0002075</ECCENTRICITY><INCLINATION>86.3997</INCLINATION><RA_OF_ASC_NODE>342.8454</RA_OF_ASC_NODE><ARG_OF_PERICENTER>96.7455</ARG_OF_PERICENTER><MEAN_ANOMALY>263.3977</MEAN_ANOMALY></meanElements><tleParameters><EPHEMERIS_TYPE>0</EPHEMERIS_TYPE><CLASSIFICATION_TYPE>U</CLASSIFICATION_TYPE><NORAD_CAT_ID>41926</NORAD_CAT_ID><ELEMENT_SET_NO>999</ELEMENT_SET_NO><REV_AT_EPOCH>40604</REV_AT_EPOCH><BSTAR>.12661E-3</BSTAR><MEAN_MOTION_DOT>.374E-5</MEAN_MOTION_DOT><MEAN_MOTION_DDOT>0</MEAN_MOTION_DDOT></tleParameters></data></segment></body></omm>
<omm id="CCSDS_OMM_VERS" version="2.0">
<header><CREATION_DATE/><ORIGINATOR/></header><body><segment><metadata><OBJECT_NAME>IRIDIUM 113</OBJECT_NAME><OBJECT_ID>2017-039A</OBJECT_ID><CENTER_NAME>EARTH</CENTER_NAME><REF_FRAME>TEME</REF_FRAME><TIME_SYSTEM>UTC</TIME_SYSTEM><MEAN_ELEMENT_THEORY>SGP4</MEAN_ELEMENT_THEORY></metadata><data><meanElements><EPOCH>2024-10-16T07:13:03.853056</EPOCH><MEAN_MOTION>14.34207246</MEAN_MOTION><ECCENTRICITY>.0001861</ECCENTRICITY><INCLINATION>86.4021</INCLINATION><RA_OF_ASC_NODE>216.5656</RA_OF_ASC_NODE><ARG_OF_PERICENTER>81.9346</ARG_OF_PERICENTER><MEAN_ANOMALY>278.2061</MEAN_ANOMALY></meanElements><tleParameters><EPHEMERIS_TYPE>0</EPHEMERIS_TYPE><CLASSIFICATION_TYPE>U</CLASSIFICATION_TYPE><NORAD_CAT_ID>42803</NORAD_CAT_ID><ELEMENT_SET_NO>999</ELEMENT_SET_NO><REV_AT_EPOCH>38391</REV_AT_EPOCH><BSTAR>-.26018E-3</BSTAR><MEAN_MOTION_DOT>-.709E-5</MEAN_MOTION_DOT><MEAN_MOTION_DDOT>0</MEAN_MOTION_DDOT></tleParameters></data></segment></body></omm>
<omm id="CCSDS_OMM_VERS" version="2.0">
<header><CREATION_DATE/><ORIGINATOR/></header><body><segment><metadata><OBJECT_NAME>IRIDIUM 123</OBJECT_NAME><OBJECT_ID>2017-039B</OBJECT_ID><CENTER_NAME>EARTH</CENTER_NAME><REF_FRAME>TEME</REF_FRAME><TIME_SYSTEM>UTC</TIME_SYSTEM><MEAN_ELEMENT_THEORY>SGP4</MEAN_ELEMENT_THEORY></metadata><data><meanElements><EPOCH>2024-10-15T23:50:26.659104</EPOCH><MEAN_MOTION>14.34214226</MEAN_MOTION><ECCENTRICITY>.0002339</ECCENTRICITY><INCLINATION>86.3949</INCLINATION><RA_OF_ASC_NODE>248.1632</RA_OF_ASC_NODE><ARG_OF_PERICENTER>90.0311</ARG_OF_PERICENTER><MEAN_ANOMALY>270.1153</MEAN_ANOMALY></meanElements><tleParameters><EPHEMERIS_TYPE>0</EPHEMERIS_TYPE><CLASSIFICATION_TYPE>U</CLASSIFICATION_TYPE><NORAD_CAT_ID>42804</NORAD_CAT_ID><ELEMENT_SET_NO>999</ELEMENT_SET_NO><REV_AT_EPOCH>38263</REV_AT_EPOCH><BSTAR>-.95467E-4</BSTAR><MEAN_MOTION_DOT>-.248E-5</MEAN_MOTION_DOT><MEAN_MOTION_DDOT>0</MEAN_MOTION_DDOT></tleParameters></data></segment></body></omm>
<omm id="CCSDS_OMM_VERS" version="2.0">
<header><CREATION_DATE/><ORIGINATOR/></header><body><segment><metadata><OBJECT_NAME>IRIDIUM 120</OBJECT_NAME><OBJECT_ID>2017-039C</OBJECT_ID><CENTER_NAME>EARTH</CENTER_NAME><REF_FRAME>TEME</REF_FRAME><TIME_SYSTEM>UTC</TIME_SYSTEM><MEAN_ELEMENT_THEORY>SGP4</MEAN_ELEMENT_THEORY></metadata><data><meanElements><EPOCH>2024-10-16T07:03:55.683936</EPOCH><MEAN_MOTION>14.34211112</MEAN_MOTION><ECCENTRICITY>.0002358</ECCENTRICITY><INCLINATION>86.4009</INCLINATION><RA_OF_ASC_NODE>216.4293</RA_OF_ASC_NODE><ARG_OF_PERICENTER>78.0926</ARG_OF_PERICENTER><MEAN_ANOMALY>282.0534</MEAN_ANOMALY></meanElements><tleParameters><EPHEMERIS_TYPE>0</EPHEMERIS_TYPE><CLASSIFICATION_TYPE>U</CLASSIFICATION_TYPE><NORAD_CAT_ID>42805</NORAD_CAT_ID><ELEMENT_SET_NO>999</ELEMENT_SET_NO><REV_AT_EPOCH>38390</REV_AT_EPOCH><BSTAR>.2683E-3</BSTAR><MEAN_MOTION_DOT>.771E-5</MEAN_MOTION_DOT><MEAN_MOTION_DDOT>0</MEAN_MOTION_DDOT></tleParameters></data></segment></body></omm>
<omm id="CCSDS_OMM_VERS" version="2.0">
<header><CREATION_DATE/><ORIGINATOR/></header><body><segment><metadata><OBJECT_NAME>IRIDIUM 115</OBJECT_NAME><OBJECT_ID>2017-039D</OBJECT_ID><CENTER_NAME>EARTH</CENTER_NAME><REF_FRAME>TEME</REF_FRAME><TIME_SYSTEM>UTC</TIME_SYSTEM><MEAN_ELEMENT_THEORY>SGP4</MEAN_ELEMENT_THEORY></metadata><data><meanElements><EPOCH>2024-10-16T07:47:14.976960</EPOCH><MEAN_MOTION>14.43279637</MEAN_MOTION><ECCENTRICITY>.000471</ECCENTRICITY><INCLINATION>86.4561</INCLINATION><RA_OF_ASC_NODE>216.4563</RA_OF_ASC_NODE><ARG_OF_PERICENTER>55.5279</ARG_OF_PERICENTER><MEAN_ANOMALY>304.6366</MEAN_ANOMALY></meanElements><tleParameters><EPHEMERIS_TYPE>0</EPHEMERIS_TYPE><CLASSIFICATION_TYPE>U</CLASSIFICATION_TYPE><NORAD_CAT_ID>42806</NORAD_CAT_ID><ELEMENT_SET_NO>999</ELEMENT_SET_NO><REV_AT_EPOCH>38644</REV_AT_EPOCH><BSTAR>.51124E-3</BSTAR><MEAN_MOTION_DOT>.174E-4</MEAN_MOTION_DOT><MEAN_MOTION_DDOT>0</MEAN_MOTION_DDOT></tleParameters></data></segment></body></omm>
<omm id="CCSDS_OMM_VERS" version="2.0">
<header><CREATION_DATE/><ORIGINATOR/></header><body><segment><metadata><OBJECT_NAME>IRIDIUM 118</OBJECT_NAME><OBJECT_ID>2017-039E</OBJECT_ID><CENTER_NAME>EARTH</CENTER_NAME><REF_FRAME>TEME</REF_FRAME><TIME_SYSTEM>UTC</TIME_SYSTEM><MEAN_ELEMENT_THEORY>SGP4</MEAN_ELEMENT_THEORY></metadata><data><meanElements><EPOCH>2024-10-15T19:34:43.315968</EPOCH><MEAN_MOTION>14.34216760</MEAN_MOTION><ECCENTRICITY>.0002271</ECCENTRICITY><INCLINATION>86.3948</INCLINATION><RA_OF_ASC_NODE>248.2379</RA_OF_ASC_NODE><ARG_OF_PERICENTER>83.6391</ARG_OF_PERICENTER><MEAN_ANOMALY>276.5063</MEAN_ANOMALY></meanElements><tleParameters><EPHEMERIS_TYPE>0</EPHEMERIS_TYPE><CLASSIFICATION_TYPE>U</CLASSIFICATION_TYPE><NORAD_CAT_ID>42807</NORAD_CAT_ID><ELEMENT_SET_NO>999</ELEMENT_SET_NO><REV_AT_EPOCH>38260</REV_AT_EPOCH><BSTAR>.27842E-3</BSTAR><MEAN_MOTION_DOT>.8E-5</MEAN_MOTION_DOT><MEAN_MOTION_DDOT>0</MEAN_MOTION_DDOT></tleParameters></data></segment></body></omm>
<omm id="CCSDS_OMM_VERS" version="2.0">
<header><CREATION_DATE/><ORIGINATOR/></header><body><segment><metadata><OBJECT_NAME>IRIDIUM 117</OBJECT_NAME><OBJECT_ID>2017-039F</OBJECT_ID><CENTER_NAME>EARTH</CENTER_NAME><REF_FRAME>TEME</REF_FRAME><TIME_SYSTEM>UTC</TIME_SYSTEM><MEAN_ELEMENT_THEORY>SGP4</MEAN_ELEMENT_THEORY></metadata><data><meanElements><EPOCH>2024-10-15T09:59:19.348224</EPOCH><MEAN_MOTION>14.34211473</MEAN_MOTION><ECCENTRICITY>.0002347</ECCENTRICITY><INCLINATION>86.3949</INCLINATION><RA_OF_ASC_NODE>248.3689</RA_OF_ASC_NODE><ARG_OF_PERICENTER>87.5079</ARG_OF_PERICENTER><MEAN_ANOMALY>272.6385</MEAN_ANOMALY></meanElements><tleParameters><EPHEMERIS_TYPE>0</EPHEMERIS_TYPE><CLASSIFICATION_TYPE>U</CLASSIFICATION_TYPE><NORAD_CAT_ID>42808</NORAD_CAT_ID><ELEMENT_SET_NO>999</ELEMENT_SET_NO><REV_AT_EPOCH>38258</REV_AT_EPOCH><BSTAR>-.20043E-3</BSTAR><MEAN_MOTION_DOT>-.541E-5</MEAN_MOTION_DOT><MEAN_MOTION_DDOT>0</MEAN_MOTION_DDOT></tleParameters></data></segment></body></omm>

</ndm>
