IRIDIUM 112             
1 41925U 17003J   24290.19392529  .00000252  00000+0  83012-4 0  9995
2 41925  86.3993 342.8118 0001861  95.7337 264.4071 14.34212308406011
IRIDIUM 111             
1 41926U 17003K   24290.25100590  .00000374  00000+0  12661-3 0  9994
2 41926  86.3997 342.8454 0002075  96.7455 263.3977 14.34211927406041
IRIDIUM 113             
1 42803U 17039A   24290.30073904 -.00000709  00000+0 -26018-3 0  9997
2 42803  86.4021 216.5656 0001861  81.9346 278.2061 14.34207246383911
IRIDIUM 123             
1 42804U 17039B   24289.99336411 -.00000248  00000+0 -95467-4 0  9999
2 42804  86.3949 248.1632 0002339  90.0311 270.1153 14.34214226382636
IRIDIUM 120             
1 42805U 17039C   24290.29439449  .00000771  00000+0  26830-3 0  9996
2 42805  86.4009 216.4293 0002358  78.0926 282.0534 14.34211112383902
IRIDIUM 115             
1 42806U 17039D   24290.32447890  .00001740  00000+0  51124-3 0  9991
2 42806  86.4561 216.4563 0004710  55.5279 304.6366 14.43279637386443
IRIDIUM 118             
1 42807U 17039E   24289.81577912  .00000800  00000+0  27842-3 0  9999
2 42807  86.3948 248.2379 0002271  83.6391 276.5063 14.34216760382600
IRIDIUM 117             
1 42808U 17039F   24289.41619616 -.00000541  00000+0 -20043-3 0  9994
2 42808  86.3949 248.3689 0002347  87.5079 272.6385 14.34211473382584
